[{"OBJECT_NAME":"BRO-12","OBJECT_ID":"2024-043L","EPOCH":"2026-03-09T22:37:32.158848","MEAN_MOTION":14.96535251,"ECCENTRICITY":0.00077366,"INCLINATION":97.831,"RA_OF_ASC_NODE":199.8995,"ARG_OF_PERICENTER":330.9773,"MEAN_ANOMALY":29.1017,"EPHEMERIS_TYPE":0,"CLASSIFICATION_TYPE":"U","NORAD_CAT_ID":59108,"ELEMENT_SET_NO":999,"REV_AT_EPOCH":10979,"BSTAR":0.00015413906,"MEAN_MOTION_DOT":1.694e-5,"MEAN_MOTION_DDOT":0},{"OBJECT_NAME":"STARLINK-32817","OBJECT_ID":"2025-037C","EPOCH":"2026-03-09T22:51:34.589952","MEAN_MOTION":14.98326829,"ECCENTRICITY":0.00027671,"INCLINATION":70.0031,"RA_OF_ASC_NODE":353.7002,"ARG_OF_PERICENTER":263.1614,"MEAN_ANOMALY":96.923,"EPHEMERIS_TYPE":0,"CLASSIFICATION_TYPE":"U","NORAD_CAT_ID":63079,"ELEMENT_SET_NO":999,"REV_AT_EPOCH":5863,"BSTAR":0.00023347418,"MEAN_MOTION_DOT":2.694e-5,"MEAN_MOTION_DDOT":0}]
